stk.v.4.3
BEGIN Ephemeris
NumberOfEphemerisPoints 2001
ScenarioEpoch           1 Jan 2000 12:0:0.0000
InterpolationOrder      5
DistanceUnit            Meters
CentralBody             Earth
CoordinateSystem        Fixed
EphemerisTimePosVel
127  -1842396.652 5783070.4416 3012825.1032 -4240.5349 -3782.9118 4626.2375
128  -1846636.2868 5779284.1506 3017449.4042 -4238.734 -3789.6693 4622.3635
129  -1850874.1185 5775491.1045 3022069.8281 -4236.9286 -3796.4222 4618.4835
130  -1855110.1426 5771691.3077 3026686.3691 -4235.1189 -3803.1706 4614.5976
131  -1859344.3548 5767884.7647 3031299.0213 -4233.3047 -3809.9145 4610.7057
132  -1863576.7505 5764071.4802 3035907.7785 -4231.486 -3816.6538 4606.8079
133  -1867807.3254 5760251.4587 3040512.635 -4229.663 -3823.3885 4602.9041
134  -1872036.075 5756424.7048 3045113.5847 -4227.8355 -3830.1186 4598.9944
135  -1876262.9949 5752591.2231 3049710.6218 -4226.0036 -3836.8441 4595.0788
136  -1880488.0807 5748751.0181 3054303.7404 -4224.1673 -3843.5651 4591.1573
137  -1884711.328 5744904.0945 3058892.9344 -4222.3266 -3850.2814 4587.2298
138  -1888932.7324 5741050.4568 3063478.1981 -4220.4814 -3856.9931 4583.2965
139  -1893152.2894 5737190.1098 3068059.5255 -4218.6318 -3863.7002 4579.3572
140  -1897369.9946 5733323.058 3072636.9106 -4216.7778 -3870.4027 4575.4121
141  -1901585.8436 5729449.306 3077210.3476 -4214.9194 -3877.1005 4571.461
142  -1905799.832 5725568.8586 3081779.8307 -4213.0566 -3883.7937 4567.5041
143  -1910011.9554 5721681.7202 3086345.3538 -4211.1894 -3890.4822 4563.5412
144  -1914222.2093 5717787.8957 3090906.9112 -4209.3178 -3897.1661 4559.5725
145  -1918430.5895 5713887.3896 3095464.497 -4207.4418 -3903.8453 4555.598
146  -1922637.0914 5709980.2067 3100018.1052 -4205.5613 -3910.5198 4551.6175
147  -1926841.7107 5706066.3516 3104567.73 -4203.6765 -3917.1896 4547.6312
148  -1931044.4429 5702145.829 3109113.3656 -4201.7872 -3923.8548 4543.639
149  -1935245.2837 5698218.6436 3113655.006 -4199.8936 -3930.5153 4539.6409
150  -1939444.2287 5694284.8 3118192.6455 -4197.9956 -3937.171 4535.6371
151  -1943641.2734 5690344.3031 3122726.2782 -4196.0931 -3943.822 4531.6273
152  -1947836.4135 5686397.1576 3127255.8982 -4194.1863 -3950.4683 4527.6117
153  -1952029.6445 5682443.368 3131781.4997 -4192.2751 -3957.1099 4523.5903
154  -1956220.9622 5678482.9393 3136303.0769 -4190.3595 -3963.7468 4519.5631
155  -1960410.362 5674515.8761 3140820.624 -4188.4395 -3970.3789 4515.53
156  -1964597.8396 5670542.1831 3145334.135 -4186.5151 -3977.0062 4511.4911
157  -1968783.3907 5666561.8652 3149843.6043 -4184.5863 -3983.6288 4507.4464
158  -1972967.0108 5662574.9271 3154349.026 -4182.6531 -3990.2466 4503.3959
159  -1977148.6955 5658581.3736 3158850.3942 -4180.7156 -3996.8597 4499.3396
160  -1981328.4405 5654581.2094 3163347.7033 -4178.7737 -4003.4679 4495.2775
161  -1985506.2414 5650574.4393 3167840.9473 -4176.8274 -4010.0714 4491.2096
162  -1989682.0938 5646561.0682 3172330.1205 -4174.8767 -4016.6701 4487.1359
163  -1993855.9933 5642541.1008 3176815.2171 -4172.9216 -4023.2639 4483.0564
164  -1998027.9355 5638514.542 3181296.2313 -4170.9622 -4029.853 4478.9711
165  -2002197.9161 5634481.3965 3185773.1573 -4168.9984 -4036.4372 4474.8801
166  -2006365.9308 5630441.6692 3190245.9895 -4167.0302 -4043.0166 4470.7832
167  -2010531.975 5626395.365 3194714.7219 -4165.0576 -4049.5911 4466.6807
168  -2014696.0446 5622342.4886 3199179.3489 -4163.0807 -4056.1609 4462.5723
169  -2018858.135 5618283.0449 3203639.8646 -4161.0994 -4062.7257 4458.4582
170  -2023018.242 5614217.0388 3208096.2634 -4159.1138 -4069.2857 4454.3384
171  -2027176.3611 5610144.4751 3212548.5395 -4157.1238 -4075.8408 4450.2128
172  -2031332.488 5606065.3587 3216996.6871 -4155.1294 -4082.3911 4446.0815
173  -2035486.6184 5601979.6945 3221440.7005 -4153.1306 -4088.9365 4441.9444
174  -2039638.7478 5597887.4874 3225880.574 -4151.1275 -4095.477 4437.8016
175  -2043788.872 5593788.7422 3230316.3019 -4149.1201 -4102.0125 4433.6531
176  -2047936.9866 5589683.4639 3234747.8784 -4147.1083 -4108.5432 4429.4989
177  -2052083.0872 5585571.6574 3239175.2978 -4145.0921 -4115.069 4425.339
178  -2056227.1694 5581453.3276 3243598.5544 -4143.0716 -4121.5898 4421.1733
179  -2060369.229 5577328.4794 3248017.6425 -4141.0468 -4128.1058 4417.0019
180  -2064509.2615 5573197.1177 3252432.5564 -4139.0176 -4134.6167 4412.8249
181  -2068647.2627 5569059.2475 3256843.2904 -4136.984 -4141.1228 4408.6422
182  -2072783.2281 5564914.8738 3261249.8388 -4134.9461 -4147.6239 4404.4537
183  -2076917.1535 5560764.0015 3265652.1959 -4132.9039 -4154.12 4400.2596
184  -2081049.0345 5556606.6355 3270050.3561 -4130.8573 -4160.6111 4396.0598
185  -2085178.8667 5552442.7808 3274444.3137 -4128.8064 -4167.0973 4391.8544
186  -2089306.6458 5548272.4425 3278834.063 -4126.7511 -4173.5785 4387.6433
187  -2093432.3675 5544095.6254 3283219.5983 -4124.6916 -4180.0548 4383.4265
188  -2097556.0275 5539912.3346 3287600.914 -4122.6276 -4186.526 4379.204
189  -2101677.6214 5535722.5752 3291978.0045 -4120.5594 -4192.9922 4374.9759
190  -2105797.1448 5531526.3519 3296350.864 -4118.4868 -4199.4534 4370.7422
191  -2109914.5935 5527323.67 3300719.487 -4116.4099 -4205.9096 4366.5028
192  -2114029.9632 5523114.5345 3305083.8678 -4114.3287 -4212.3607 4362.2578
193  -2118143.2494 5518898.9503 3309444.0008 -4112.2431 -4218.8069 4358.0072
194  -2122254.4479 5514676.9224 3313799.8803 -4110.1532 -4225.2479 4353.7509
195  -2126363.5544 5510448.4561 3318151.5008 -4108.059 -4231.684 4349.489
196  -2130470.5645 5506213.5562 3322498.8565 -4105.9605 -4238.1149 4345.2216
197  -2134575.4739 5501972.2279 3326841.942 -4103.8576 -4244.5409 4340.9485
198  -2138678.2784 5497724.4762 3331180.7516 -4101.7505 -4250.9617 4336.6697
199  -2142778.9735 5493470.3062 3335515.2796 -4099.639 -4257.3775 4332.3855
200  -2146877.555 5489209.7229 3339845.5206 -4097.5232 -4263.7881 4328.0956
END Ephemeris